#dP2024 10 10 12  0  0.00000000      96 __u+U IGS20 EXT  IAC
## 2335 388800.00000000   900.00000000 60593 0.5000000000000
+   53   G02G03G04G05G06G07G08G09G10G11G12G13G14G15G16G17G18
+        G19G20G21G22G23G24G25G26G27G28G29G30G31G32R01R02R03
+        R04R05R07R08R09R11R12R14R15R16R17R18R19R20R21R22R24
+        R25R26  0  0  0  0  0  0  0  0  0  0  0  0  0  0  0
+          0  0  0  0  0  0  0  0  0  0  0  0  0  0  0  0  0
++         8  8  6  7  7  7  7  6  7  6  7  7  7  7  8  8  7
++         8  6  8  6  7  6  7 10  8  7  7  7  7  7  7  8  8
++         6  8  7  7  8  8 11  9  9  8  7  9  8  6  8  7  8
++         6  6  0  0  0  0  0  0  0  0  0  0  0  0  0  0  0
++         0  0  0  0  0  0  0  0  0  0  0  0  0  0  0  0  0
%c M  cc GPS ccc cccc cccc cccc cccc ccccc ccccc ccccc ccccc
%c cc cc ccc ccc cccc cccc cccc cccc ccccc ccccc ccccc ccccc
%f  0.0000000  0.000000000  0.00000000000  0.000000000000000
%f  0.0000000  0.000000000  0.00000000000  0.000000000000000
%i    0    0    0    0      0      0      0      0         0
%i    0    0    0    0      0      0      0      0         0
/* IAC                                ULTRA-RAPID PREDICTION
/* S/V CLOCKS ARE ALIGNED TO GNSS TIME                      
/* G:C1WC2W R:C1PC2P E:C1XC5X C:C2IC6I J:C1CC2S             
/* PCV:IGS20_2317 OL/AL:FES2004  NONE     YN ORB:CoN CLK:CoN
*  2024 10 10 19  0  0.00000000
PG02 -21892.567622 -11983.516381  10038.659853   -339.932380
PG03 -14759.346826  -1674.897410  21841.652777    566.065550
PG04 -25589.121955  -1345.554385   7288.481213    459.322428
PG05   7668.846987  17749.472633 -18362.363896   -189.363944
PG06   -320.407323  18919.068351  18661.794270    -29.049070
PG07 -16755.243187   2390.013758 -20046.882090    -28.913196
PG08 -19135.936098  -8121.238328 -16891.294210    380.234120
PG09 -25471.995181   7210.232379  -2630.428833    393.004789
PG10  10260.529096 -24173.618456  -2227.069607   -153.944990
PG11  11674.909853  22891.607209   6878.462423   -742.830745
PG12  13537.490144   6629.272160  21587.104091   -544.201326
PG13  10952.005721  13499.526957 -20379.520764    680.823182
PG14 -13076.505188  22184.157419  -5951.299906    514.632273
PG15  20005.300506   6196.957329 -16948.471143    214.197871
PG16  -2736.582933 -21006.954769 -16076.315384   -158.368072
PG17 -15928.770918  13632.171117  16831.061225    599.882632
PG18  15578.180474  -3685.950900 -21210.424196   -657.454900
PG19  -6341.304509  14914.855056  20809.369871    548.867137
PG20   2206.720670  25001.245990  -8843.554125    369.802786
PG21 -21222.460581 -16434.830107   4410.344073    100.043158
PG22  -9330.937419  24927.122770   2822.598648    -69.856778
PG23  15405.365293 -15831.569654 -14546.149325    338.800620
PG24  21681.930932  13929.753819   6795.492444   -485.153408
PG25  16705.190150  -7674.285173  18731.459494    499.556851
PG26   3269.667755 -25773.734654  -4594.527618     58.974350
PG27  -8316.129451 -13740.479470 -21508.598884    -34.469748
PG28   1941.536079 -18021.077844  19400.059757   -441.348334
PG29  26397.441905  -3407.525573   -899.625231   -572.173657
PG30  -9325.007692  12964.134935 -21043.692256   -304.974005
PG31  -8094.226860 -22415.229509  11081.808408   -223.573586
PG32  13280.933266 -15007.706732  17544.375161   -588.233047
PR01  15592.770304 -16562.178067  11542.371764    100.596998
PR02    828.428955 -12492.280212  22249.689436    -25.102219
PR03 -15283.840643  -1917.920368  20393.156145    109.167280
PR04 -22556.759192   9230.602087   7587.933545    258.672553
PR05 -17996.496057  15516.902729  -9312.006898    138.951581
PR07  15565.407182   1598.197121 -20091.453091     92.667914
PR08  22467.647828  -9580.238857  -7226.197955     -6.423174
PR09   3532.411606  24840.457595   4369.371621    213.950579
PR11  10818.970362  -2609.677731  22963.692645      9.622449
PR12   5763.809061 -21090.561591  13153.665961     45.868062
PR14  -9608.872844 -14373.880703 -18750.234122     27.055646
PR15 -10788.841740   4464.591578 -22658.346208     75.014616
PR16  -5662.164270  20987.516200 -13306.889106     29.841129
PR17 -22021.938704 -12788.444494   -882.227071    129.599798
PR18 -20452.226002  -4080.860497  14735.920487    166.234352
PR19 -10372.750684   5500.755583  22648.299582   -294.384999
PR20   9917.114475  15477.336161  17684.052778   -120.267658
PR21  21703.194752  13325.443798   1756.313294   -141.657179
PR22  19935.339604   3511.083385 -15488.602507     24.578927
PR24 -10940.556887 -15375.030617 -17127.300221    -75.485514
PR25  21655.229380  13499.154567    520.697869    -93.224551
PR26  22270.131185  -8759.946090  -8837.255174     73.180465
*  2024 10 10 19 15  0.00000000
PG02 -22448.204946 -12753.047859   7423.929867   -339.925017
PG03 -13988.130439  -4095.941111  22036.497741    566.076150
PG04 -24663.933877  -1727.326762   9914.008221    459.328579
PG05   7031.856588  19616.604402 -16611.488123   -189.365110
PG06  -1837.593801  17323.011505  20084.481592    -29.073727
PG07 -18240.937666    597.643252 -18921.628775    -28.909975
PG08 -17239.132573  -8748.807584 -18512.755953    380.244688
PG09 -25656.526215   6993.244457    214.342941    393.019596
PG10  10320.858561 -23684.105131  -5111.972830   -153.956884
PG11  10913.607885  22310.710415   9531.606105   -742.833579
PG12  12586.524730   8958.302194  21327.441083   -544.203802
PG13   8632.169420  13723.577374 -21312.649702    680.824837
PG14 -13084.330073  21286.312027  -8619.564407    514.639840
PG15  18255.473253   7053.136789 -18548.613160    214.201857
PG16  -1900.323841 -22481.231692 -13986.300063   -158.359028
PG17 -17666.871363  13754.371085  14844.474129    599.871186
PG18  17092.295308  -1861.165734 -20283.186925   -657.456235
PG19  -8700.768254  15067.146513  19792.427656    548.871382
PG20   1852.414370  25827.726936  -6182.718540    369.802442
PG21 -21324.950299 -16755.532047   1642.489093    100.042423
PG22  -9589.462675  24943.673404     -8.951381    -69.859858
PG23  15052.155750 -14068.531654 -16599.609842    338.808005
PG24  21981.867027  14597.817384   4109.256391   -485.152472
PG25  16183.412966  -5439.909123  19935.473288    499.556780
PG26   3705.447048 -26037.538059  -1810.469503     58.965995
PG27  -5962.433007 -14290.650401 -21895.442308    -34.469971
PG28   3603.322940 -16446.530210  20527.962740   -441.360077
PG29  26363.529778  -3178.539553   1964.371226   -572.171293
PG30 -11011.716902  11167.317422 -21280.094323   -304.967374
PG31  -6950.687140 -21487.007641  13434.603039   -223.573135
PG32  15142.730827 -15259.160890  15680.424218   -588.229159
PR01  16542.103199 -17382.003479   8656.598826    100.598007
PR02   3052.987944 -13972.346396  21140.011808    -25.102399
PR03 -13075.530052  -3268.673723  21711.118714    109.167958
PR04 -21524.001678   8774.327281  10555.268712    258.674096
PR05 -18718.456435  16176.304237  -6275.036216    138.951877
PR07  13367.514699   2942.105623 -21476.960840     92.668648
PR08  21476.097171  -9115.008128 -10209.190919     -6.423182
PR09   3647.975591  25173.436546   1202.465286    213.952481
PR11  10997.596856    219.558113  23024.515359      9.621577
PR12   5763.436050 -19314.374328  15650.534091     45.868480
PR14  -9831.463503 -16554.014657 -16731.199816     27.055702
PR15 -10940.211631   1649.443769 -22963.856476     75.014256
PR16  -5656.352265  19184.293262 -15799.025781     29.841394
PR17 -21831.266655 -12482.956793  -4097.904957    129.602911
PR18 -21989.991689  -4709.973753  12096.759044    166.236014
PR19 -12779.641746   4193.392551  21675.685377   -294.386153
PR20   7986.709147  14213.411846  19620.212463   -120.268165
PR21  21431.187374  12955.154028   4956.191528   -141.660065
PR22  21526.187823   4275.664743 -12966.485569     24.569261
PR24  -8989.985321 -14266.969513 -19106.289995    -75.486907
PR25  21501.211857  13243.201973   3716.410751    -93.221307
PR26  21126.276721  -8186.728271 -11718.975690     73.205466
EOF
